{
  "type": "FeatureCollection",
  "features": [
    {
      "type": "Feature",
      "properties": {
        "norad_id": 64902,
        "name": "CO3D 2",
        "group": "resource",
        "lat": -18.047075917221623,
        "lon": -129.4489354111485,
        "alt_km": 510.272996185181,
        "timestamp": "2025-12-02T13:52:16.933776+00:00",
        "meta_object_name": "CO3D 2",
        "meta_object_id": "2025-156D",
        "meta_epoch": "2025-12-02T06:41:01.625856",
        "meta_mean_motion": 15.20198757,
        "meta_eccentricity": 9.72e-05,
        "meta_inclination": 97.4353,
        "meta_ra_of_asc_node": 52.6946,
        "meta_arg_of_pericenter": 113.8756,
        "meta_mean_anomaly": 246.2581,
        "meta_ephemeris_type": 0,
        "meta_classification_type": "U",
        "meta_norad_cat_id": 64902,
        "meta_element_set_no": 999,
        "meta_rev_at_epoch": 1961,
        "meta_bstar": 0.00034844167,
        "meta_mean_motion_dot": 7.482e-05,
        "meta_mean_motion_ddot": 0,
        "tle_line1": "1 64902U 25156D   25336.27849104  .00007482  00000+0  34844-3 0  9990",
        "tle_line2": "2 64902  97.4353  52.6946 0000972 113.8756 246.2581 15.20198757 19615"
      },
      "geometry": {
        "type": "Point",
        "coordinates": [
          -129.4489354111485,
          -18.047075917221623
        ]
      }
    },
    {
      "type": "Feature",
      "properties": {
        "norad_id": 64903,
        "name": "CO3D 1",
        "group": "resource",
        "lat": -17.221223189312557,
        "lon": -129.33008427940393,
        "alt_km": 510.11048361409667,
        "timestamp": "2025-12-02T13:52:16.933786+00:00",
        "meta_object_name": "CO3D 1",
        "meta_object_id": "2025-156E",
        "meta_epoch": "2025-12-02T06:41:14.935776",
        "meta_mean_motion": 15.20204295,
        "meta_eccentricity": 0.0001049,
        "meta_inclination": 97.4355,
        "meta_ra_of_asc_node": 52.6948,
        "meta_arg_of_pericenter": 117.5954,
        "meta_mean_anomaly": 242.5388,
        "meta_ephemeris_type": 0,
        "meta_classification_type": "U",
        "meta_norad_cat_id": 64903,
        "meta_element_set_no": 999,
        "meta_rev_at_epoch": 1961,
        "meta_bstar": 0.00054100769,
        "meta_mean_motion_dot": 0.00011663,
        "meta_mean_motion_ddot": 0,
        "tle_line1": "1 64903U 25156E   25336.27864509  .00011663  00000+0  54101-3 0  9991",
        "tle_line2": "2 64903  97.4355  52.6948 0001049 117.5954 242.5388 15.20204295 19616"
      },
      "geometry": {
        "type": "Point",
        "coordinates": [
          -129.33008427940393,
          -17.221223189312557
        ]
      }
    },
    {
      "type": "Feature",
      "properties": {
        "norad_id": 66514,
        "name": "SENTINEL-6B",
        "group": "resource",
        "lat": -53.5958261513354,
        "lon": 146.56230814089145,
        "alt_km": 1316.3066336138,
        "timestamp": "2025-12-02T13:52:16.933796+00:00",
        "meta_object_name": "SENTINEL-6B",
        "meta_object_id": "2025-264A",
        "meta_epoch": "2025-12-02T01:07:30.457056",
        "meta_mean_motion": 12.85877319,
        "meta_eccentricity": 0.00115275,
        "meta_inclination": 66.0388,
        "meta_ra_of_asc_node": 184.7629,
        "meta_arg_of_pericenter": 268.8495,
        "meta_mean_anomaly": 91.1202,
        "meta_ephemeris_type": 0,
        "meta_classification_type": "U",
        "meta_norad_cat_id": 66514,
        "meta_element_set_no": 999,
        "meta_rev_at_epoch": 191,
        "meta_bstar": 0.0003263787,
        "meta_mean_motion_dot": 1.9e-07,
        "meta_mean_motion_ddot": 0,
        "tle_line1": "1 66514U 25264A   25336.04688029  .00000019  00000+0  32638-3 0  9991",
        "tle_line2": "2 66514  66.0388 184.7629 0011527 268.8495  91.1202 12.85877319  1917"
      },
      "geometry": {
        "type": "Point",
        "coordinates": [
          146.56230814089145,
          -53.5958261513354
        ]
      }
    }
  ]
}